#aV2006  9 13  0  0   .00000000      96 DD+AD WGS84 FIT  NGA
## 1392 259200.00000000   900.00000000 53991  .0000000000000
+   29     1  2  3  4  5  6  7  8  9 10 11 13 14 15 16 17 18
+         19 20 21 22 23 24 25 26 27 28 29 30  0  0  0  0  0
+          0  0  0  0  0  0  0  0  0  0  0  0  0  0  0  0  0
+          0  0  0  0  0  0  0  0  0  0  0  0  0  0  0  0  0
+          0  0  0  0  0  0  0  0  0  0  0  0  0  0  0  0  0
++         0  0  0  0  0  0  0  0  0  0  0  0  0  0  0  0  0
++         0  0  0  0  0  0  0  0  0  0  0  0  0  0  0  0  0
++         0  0  0  0  0  0  0  0  0  0  0  0  0  0  0  0  0
++         0  0  0  0  0  0  0  0  0  0  0  0  0  0  0  0  0
++         0  0  0  0  0  0  0  0  0  0  0  0  0  0  0  0  0
%c cc cc ccc ccc cccc cccc cccc cccc ccccc ccccc ccccc ccccc
%c cc cc ccc ccc cccc cccc cccc cccc ccccc ccccc ccccc ccccc
%f  0.0000000  0.000000000  0.00000000000  0.000000000000000
%f  0.0000000  0.000000000  0.00000000000  0.000000000000000
%i    0    0    0    0      0      0      0      0         0
%i    0    0    0    0      0      0      0      0         0
/*      NGA, ST. LOUIS,MO.                                  
/*   EPHEMERIS COMPUTED FROM  3 DAYS OF DATA                
/* CCCCCCCCCCCCCCCCCCCCCCCCCCCCCCCCCCCCCCCCCCCCCCCCCCCCCCCCC
/* CCCCCCCCCCCCCCCCCCCCCCCCCCCCCCCCCCCCCCCCCCCCCCCCCCCCCCCCC
*  2006  9 13  2 15   .00000000                                                 
P  1   5426.715843  14113.307409  22040.710142     76.403683                    
V  1 -27314.051367   2460.620996   5135.102946       .022277                    
P  2 -11872.179987 -23009.734094   6202.413905     34.282361                    
V  2   7250.303687   4728.292243  30012.684250       .038921                    
P  3  11098.321897  13262.793980 -20406.151736     91.415250                    
V  3 -24776.414033   6427.622606  -9058.544328       .755238                    
P  4   -407.079728 -20641.948008  16469.135823    309.165951                    
V  4  14318.119915  15755.844214  20400.593844       .057916                    
P  5 -15294.092088  -3293.595611  21238.261382    340.839772                    
V  5   8337.099537 -26288.172313   2068.372628       .127407                    
P  6 -25202.161428   7199.780364  -4305.685049    596.189319                    
V  6  -6201.114827  -2628.585310  30467.840670      -.033971                    
P  7  -7271.992635  16023.060050 -19583.629331    527.330125                    
V  7 -25500.949274   3278.446377  11849.943442      -.041698                    
P  8   7309.570243 -14559.875877 -21027.656116    -79.450496                    
V  8  15730.427290  21263.125797  -9730.418283      -.014023                    
P  9 -20177.500069 -14281.442163   9474.644590     35.888273                    
V  9  -6173.546743 -11446.228638 -28429.806804       .015699                    
P 10  -4309.768111 -19445.606227 -17510.669792     89.581697                    
V 10  10597.400405 -19503.581580  19454.161830       .005769                    
P 11  22353.674571   9498.088062  10971.994965    349.993842                    
V 11   7377.346736  12649.134050 -25540.066429       .019486                    
P 13  24976.863043  -6483.873653  -6291.954660     93.851299                    
V 13   7979.169114    987.702628  31155.013908       .033777                    
P 14 -11988.703416  14023.085871  19150.106125     -5.661973                    
V 14 -24094.456362   1588.761069 -16374.292505       .007177                    
P 15  -7098.257529  15565.686667 -20342.917919     -1.440636                    
V 15 -14916.138719 -20916.992817 -11296.125830      -.029973                    
P 16   1263.303676  22161.027999 -14418.624007     72.689558                    
V 16  -9392.913918  16070.588144  23864.179874       .033025                    
P 17  12469.631920 -14474.273131  18404.166665     95.979764                    
V 17  23435.625685  -1245.684932 -16956.147334      -.010207                    
P 18 -17129.646180  15825.210401 -12282.816264   -248.785431                    
V 18   4408.241934 -15531.535621 -26224.621142      -.009059                    
P 19  20407.684494   8909.568148 -14424.398236     15.239378                    
V 19 -18311.981591   3276.185979 -23639.341018       .031311                    
P 20  16421.762747  -1429.984174  20732.603701    -22.578408                    
V 20  -9319.510127  24875.647783   9083.500714       .002344                    
P 21 -13440.516545   7961.865350 -21409.184290     52.304782                    
V 21 -15803.983074 -22434.778696   1028.128317       .018422                    
P 22 -11659.980269  23847.546432    -89.689679    133.681377                    
V 22  -2613.912858  -1608.549912 -31624.466375       .030357                    
P 23  26105.328767    430.911160   5308.025374    137.869589                    
V 23  -6475.739067   3153.347471  30871.703956       .001636                    
P 24   5382.905635 -16955.546665  19867.863774     35.637246                    
V 24  14975.072670  19830.605435  13300.171486       .028402                    
P 25   7497.277440  21993.531738  13126.792281    327.646704                    
V 25 -12614.011810 -10283.593814  25343.897382       .195054                    
P 26 -19553.213272  -8930.408944 -16378.133998   -252.184005                    
V 26  19593.514628  -2638.008051 -21959.220341      -.146910                    
P 27  14265.110950  -5969.861343 -21020.119803     67.553899                    
V 27  17923.786895  21644.363321   5549.314945       .018319                    
P 28  13113.119745 -22481.554585  -3956.895301     18.826743                    
V 28    605.086714   6235.498392 -31449.613780      -.008200                    
P 29 -17014.642689  -9679.143240 -17865.668578    -66.198010                    
V 29  22644.443474  -3988.576601 -18872.360047      -.730656                    
P 30 -17110.562020  11267.730658  16544.584270      9.870688                    
V 30   5635.793380 -21036.438197  19918.733621       .012781                    
EOF
